{
  "type": "FeatureCollection",
  "name": "dah_special_zones",
  "metadata": {
    "source_pdf": "C:\\Users\\Ron Treleaven\\Drone_SOP\\data\\airspace\\_sources\\dah20260903.pdf",
    "feature_count": 7,
    "zone_types": [
      "ADIZ",
      "MOA"
    ]
  },
  "features": [
    {
      "type": "Feature",
      "properties": {
        "id": "ADIZ-NE",
        "name": "Air Defence Identification Zone (North and East)",
        "class": "F",
        "designation": "Other",
        "zone_type": "ADIZ",
        "lower": "SFC",
        "upper": "",
        "active": "Unknown",
        "section": "DAH PDF",
        "source": "Transport Canada DAH PDF"
      },
      "geometry": {
        "type": "Polygon",
        "coordinates": [
          [
            [
              -66.66666666666667,
              72.0
            ],
            [
              -73.27166666666666,
              75.0
            ],
            [
              -75.0,
              76.69
            ],
            [
              -74.76666666666667,
              77.5
            ],
            [
              -73.76666666666667,
              78.41666666666667
            ],
            [
              -73.0,
              78.80833333333334
            ],
            [
              -69.33333333333333,
              79.65
            ],
            [
              -69.0,
              80.0
            ],
            [
              -68.33333333333333,
              80.41666666666667
            ],
            [
              -67.11666666666666,
              80.75
            ],
            [
              -66.48333333333333,
              80.82
            ],
            [
              -66.66666666666667,
              72.0
            ]
          ]
        ]
      }
    },
    {
      "type": "Feature",
      "properties": {
        "id": "MOA-ALGONQUIN",
        "name": "Algonquin Military Operational Area",
        "class": "F",
        "designation": "Other",
        "zone_type": "MOA",
        "lower": "SFC",
        "upper": "",
        "active": "Unknown",
        "section": "DAH PDF",
        "source": "Transport Canada DAH PDF"
      },
      "geometry": {
        "type": "Polygon",
        "coordinates": [
          [
            [
              -78.05,
              44.733333333333334
            ],
            [
              -78.16666666666667,
              44.96666666666667
            ],
            [
              -78.5,
              45.333333333333336
            ],
            [
              -78.5,
              47.0
            ],
            [
              -77.66666666666667,
              47.0
            ],
            [
              -77.5,
              46.9
            ],
            [
              -77.5,
              46.5
            ],
            [
              -77.73333333333333,
              46.2
            ],
            [
              -77.40143055555556,
              46.067233333333334
            ],
            [
              -77.4225,
              46.01833333333333
            ],
            [
              -77.46972222222223,
              46.006388888888885
            ],
            [
              -77.50277777777778,
              46.01111111111111
            ],
            [
              -77.61666666666666,
              45.97916666666667
            ],
            [
              -77.53777777777778,
              45.84027777777778
            ],
            [
              -77.73333333333333,
              45.791666666666664
            ],
            [
              -77.73333333333333,
              45.583333333333336
            ],
            [
              -76.91666666666667,
              45.3
            ],
            [
              -77.0,
              45.11666666666667
            ],
            [
              -77.46666666666667,
              44.95
            ],
            [
              -77.11495833333333,
              44.39720277777778
            ],
            [
              -77.61277777777777,
              44.28444444444444
            ],
            [
              -77.74965555555556,
              44.23829722222222
            ],
            [
              -78.05,
              44.733333333333334
            ]
          ]
        ]
      }
    },
    {
      "type": "Feature",
      "properties": {
        "id": "MOA-ELK",
        "name": "Elk Military Operational Area",
        "class": "F",
        "designation": "Other",
        "zone_type": "MOA",
        "lower": "SFC",
        "upper": "",
        "active": "Unknown",
        "section": "DAH PDF",
        "source": "Transport Canada DAH PDF"
      },
      "geometry": {
        "type": "Polygon",
        "coordinates": [
          [
            [
              -66.0,
              43.0
            ],
            [
              -65.0,
              43.0
            ],
            [
              -60.0,
              44.5
            ],
            [
              -59.0,
              45.5
            ],
            [
              -56.0,
              45.5
            ],
            [
              -54.0,
              46.333333333333336
            ],
            [
              -51.0,
              46.333333333333336
            ],
            [
              -51.0,
              48.4
            ],
            [
              -60.333333333333336,
              58.5
            ],
            [
              -41.5,
              58.5
            ],
            [
              -32.0,
              52.0
            ],
            [
              -46.0,
              40.0
            ],
            [
              -66.0,
              40.0
            ],
            [
              -66.0,
              43.0
            ]
          ]
        ]
      }
    },
    {
      "type": "Feature",
      "properties": {
        "id": "MOA-SHEARWATER-S1",
        "name": "Shearwater MOA DIP Sector 1",
        "class": "F",
        "designation": "Other",
        "zone_type": "MOA",
        "lower": "SFC",
        "upper": "",
        "active": "Unknown",
        "section": "DAH PDF",
        "source": "Transport Canada DAH PDF"
      },
      "geometry": {
        "type": "Polygon",
        "coordinates": [
          [
            [
              -63.149858333333334,
              44.63260833333334
            ],
            [
              -62.79976944444444,
              44.631
            ],
            [
              -62.89616111111111,
              44.38155
            ],
            [
              -63.19741111111111,
              44.50775
            ],
            [
              -63.149858333333334,
              44.63260833333334
            ]
          ]
        ]
      }
    },
    {
      "type": "Feature",
      "properties": {
        "id": "MOA-SHEARWATER-S2",
        "name": "Shearwater MOA DIP Sector 2",
        "class": "F",
        "designation": "Other",
        "zone_type": "MOA",
        "lower": "SFC",
        "upper": "",
        "active": "Unknown",
        "section": "DAH PDF",
        "source": "Transport Canada DAH PDF"
      },
      "geometry": {
        "type": "Polygon",
        "coordinates": [
          [
            [
              -63.23250277777778,
              44.47213888888889
            ],
            [
              -62.96651666666667,
              44.31050555555555
            ],
            [
              -63.26238611111111,
              44.16305277777778
            ],
            [
              -63.380694444444444,
              44.39816666666667
            ],
            [
              -63.23250277777778,
              44.47213888888889
            ]
          ]
        ]
      }
    },
    {
      "type": "Feature",
      "properties": {
        "id": "MOA-SHEARWATER-S3",
        "name": "Shearwater MOA DIP Sector 3",
        "class": "F",
        "designation": "Other",
        "zone_type": "MOA",
        "lower": "SFC",
        "upper": "",
        "active": "Unknown",
        "section": "DAH PDF",
        "source": "Transport Canada DAH PDF"
      },
      "geometry": {
        "type": "Polygon",
        "coordinates": [
          [
            [
              -63.439416666666666,
              44.38693333333333
            ],
            [
              -63.37938333333334,
              44.140677777777775
            ],
            [
              -63.73752777777778,
              44.16305277777778
            ],
            [
              -63.61921666666667,
              44.39816666666667
            ],
            [
              -63.439416666666666,
              44.38693333333333
            ]
          ]
        ]
      }
    },
    {
      "type": "Feature",
      "properties": {
        "id": "MOA-SHEARWATER-S4",
        "name": "Shearwater MOA DIP Sector 4",
        "class": "F",
        "designation": "Other",
        "zone_type": "MOA",
        "lower": "SFC",
        "upper": "",
        "active": "Unknown",
        "section": "DAH PDF",
        "source": "Transport Canada DAH PDF"
      },
      "geometry": {
        "type": "Polygon",
        "coordinates": [
          [
            [
              -63.67435833333333,
              44.41651111111111
            ],
            [
              -63.84747777777778,
              44.19960277777778
            ],
            [
              -64.10375277777777,
              44.38155
            ],
            [
              -63.802502777777775,
              44.50775
            ],
            [
              -63.67435833333333,
              44.41651111111111
            ]
          ]
        ]
      }
    }
  ]
}